[
  {
    "OBJECT_NAME": "STARLINK-11273 [DTC]",
    "OBJECT_ID": "24154L",
    "EPOCH": "2025-11-11T03:00:06.665760",
    "MEAN_MOTION": 15.69711229,
    "ECCENTRICITY": 6.65e-05,
    "INCLINATION": 53.1587,
    "RA_OF_ASC_NODE": 355.6561,
    "ARG_OF_PERICENTER": 82.2965,
    "MEAN_ANOMALY": 277.8129,
    "EPHEMERIS_TYPE": 0,
    "CLASSIFICATION_TYPE": "U",
    "NORAD_CAT_ID": 60913,
    "ELEMENT_SET_NO": 999,
    "REV_AT_EPOCH": 6988,
    "BSTAR": 4.4698999999999995e-07,
    "MEAN_MOTION_DOT": -5.34e-06,
    "MEAN_MOTION_DDOT": 0.0,
    "TLE_LINE1": "1 60913U 24154L   25315.12507715 -.00000534  00000+0  44699-6 0  9999",
    "TLE_LINE2": "2 60913  53.1587 355.6561 0000665  82.2965 277.8129 15.69711229 69880",
    "COMMENT": "Grouped by shell and plane from TLE"
  },
  {
    "OBJECT_NAME": "STARLINK-11248 [DTC]",
    "OBJECT_ID": "24154M",
    "EPOCH": "2025-11-11T08:00:03.000384",
    "MEAN_MOTION": 15.76583954,
    "ECCENTRICITY": 0.0006216,
    "INCLINATION": 53.1519,
    "RA_OF_ASC_NODE": 353.9129,
    "ARG_OF_PERICENTER": 42.1341,
    "MEAN_ANOMALY": 43.8476,
    "EPHEMERIS_TYPE": 0,
    "CLASSIFICATION_TYPE": "U",
    "NORAD_CAT_ID": 60914,
    "ELEMENT_SET_NO": 999,
    "REV_AT_EPOCH": 600,
    "BSTAR": 0.00082771,
    "MEAN_MOTION_DOT": 0.00136255,
    "MEAN_MOTION_DDOT": 0.0,
    "TLE_LINE1": "1 60914U 24154M   25315.33336806  .00136255  00000+0  82771-3 0  9993",
    "TLE_LINE2": "2 60914  53.1519 353.9129 0006216  42.1341  43.8476 15.76583954  6009",
    "COMMENT": "Grouped by shell and plane from TLE"
  },
  {
    "OBJECT_NAME": "STARLINK-11271 [DTC]",
    "OBJECT_ID": "24154N",
    "EPOCH": "2025-11-11T07:21:01.841184",
    "MEAN_MOTION": 15.69693292,
    "ECCENTRICITY": 9.62e-05,
    "INCLINATION": 53.1589,
    "RA_OF_ASC_NODE": 354.6522,
    "ARG_OF_PERICENTER": 99.7787,
    "MEAN_ANOMALY": 260.334,
    "EPHEMERIS_TYPE": 0,
    "CLASSIFICATION_TYPE": "U",
    "NORAD_CAT_ID": 60915,
    "ELEMENT_SET_NO": 999,
    "REV_AT_EPOCH": 6991,
    "BSTAR": 2.7883000000000004e-05,
    "MEAN_MOTION_DOT": 2.789e-05,
    "MEAN_MOTION_DDOT": 0.0,
    "TLE_LINE1": "1 60915U 24154N   25315.30627131  .00002789  00000+0  27883-4 0  9993",
    "TLE_LINE2": "2 60915  53.1589 354.6522 0000962  99.7787 260.3340 15.69693292 69910",
    "COMMENT": "Grouped by shell and plane from TLE"
  },
  {
    "OBJECT_NAME": "STARLINK-11543 [DTC]",
    "OBJECT_ID": "25031A",
    "EPOCH": "2025-11-11T06:45:05.053536",
    "MEAN_MOTION": 15.70936355,
    "ECCENTRICITY": 0.000102,
    "INCLINATION": 42.9996,
    "RA_OF_ASC_NODE": 354.8482,
    "ARG_OF_PERICENTER": 279.1364,
    "MEAN_ANOMALY": 80.9388,
    "EPHEMERIS_TYPE": 0,
    "CLASSIFICATION_TYPE": "U",
    "NORAD_CAT_ID": 62981,
    "ELEMENT_SET_NO": 999,
    "REV_AT_EPOCH": 4412,
    "BSTAR": 0.0018136,
    "MEAN_MOTION_DOT": 0.00240072,
    "MEAN_MOTION_DDOT": 0.0,
    "TLE_LINE1": "1 62981U 25031A   25315.28130849  .00240072  00000+0  18136-2 0  9993",
    "TLE_LINE2": "2 62981  42.9996 354.8482 0001020 279.1364  80.9388 15.70936355 44127",
    "COMMENT": "Grouped by shell and plane from TLE"
  },
  {
    "OBJECT_NAME": "STARLINK-11458 [DTC]",
    "OBJECT_ID": "25031B",
    "EPOCH": "2025-11-11T05:36:27.293472",
    "MEAN_MOTION": 15.7092891,
    "ECCENTRICITY": 0.0001182,
    "INCLINATION": 42.9986,
    "RA_OF_ASC_NODE": 355.3599,
    "ARG_OF_PERICENTER": 257.9822,
    "MEAN_ANOMALY": 102.0913,
    "EPHEMERIS_TYPE": 0,
    "CLASSIFICATION_TYPE": "U",
    "NORAD_CAT_ID": 62982,
    "ELEMENT_SET_NO": 999,
    "REV_AT_EPOCH": 4411,
    "BSTAR": 0.0031356,
    "MEAN_MOTION_DOT": 0.00424743,
    "MEAN_MOTION_DDOT": 0.0,
    "TLE_LINE1": "1 62982U 25031B   25315.23364923  .00424743  00000+0  31356-2 0  9999",
    "TLE_LINE2": "2 62982  42.9986 355.3599 0001182 257.9822 102.0913 15.70928910 44111",
    "COMMENT": "Grouped by shell and plane from TLE"
  },
  {
    "OBJECT_NAME": "STARLINK-11417 [DTC]",
    "OBJECT_ID": "25031C",
    "EPOCH": "2025-11-11T06:30:00.182016",
    "MEAN_MOTION": 15.70984062,
    "ECCENTRICITY": 0.00014,
    "INCLINATION": 42.9993,
    "RA_OF_ASC_NODE": 355.659,
    "ARG_OF_PERICENTER": 342.1021,
    "MEAN_ANOMALY": 17.9797,
    "EPHEMERIS_TYPE": 0,
    "CLASSIFICATION_TYPE": "U",
    "NORAD_CAT_ID": 62983,
    "ELEMENT_SET_NO": 999,
    "REV_AT_EPOCH": 4411,
    "BSTAR": 0.0025748,
    "MEAN_MOTION_DOT": 0.00346162,
    "MEAN_MOTION_DDOT": 0.0,
    "TLE_LINE1": "1 62983U 25031C   25315.27083544  .00346162  00000+0  25748-2 0  9997",
    "TLE_LINE2": "2 62983  42.9993 355.6590 0001400 342.1021  17.9797 15.70984062 44119",
    "COMMENT": "Grouped by shell and plane from TLE"
  },
  {
    "OBJECT_NAME": "STARLINK-11544 [DTC]",
    "OBJECT_ID": "25031D",
    "EPOCH": "2025-11-11T03:57:15.507648",
    "MEAN_MOTION": 15.70900067,
    "ECCENTRICITY": 0.0001258,
    "INCLINATION": 42.9998,
    "RA_OF_ASC_NODE": 355.6992,
    "ARG_OF_PERICENTER": 259.527,
    "MEAN_ANOMALY": 100.5456,
    "EPHEMERIS_TYPE": 0,
    "CLASSIFICATION_TYPE": "U",
    "NORAD_CAT_ID": 62984,
    "ELEMENT_SET_NO": 999,
    "REV_AT_EPOCH": 4407,
    "BSTAR": 0.0019424,
    "MEAN_MOTION_DOT": 0.00257313,
    "MEAN_MOTION_DDOT": 0.0,
    "TLE_LINE1": "1 62984U 25031D   25315.16476282  .00257313  00000+0  19424-2 0  9994",
    "TLE_LINE2": "2 62984  42.9998 355.6992 0001258 259.5270 100.5456 15.70900067 44078",
    "COMMENT": "Grouped by shell and plane from TLE"
  },
  {
    "OBJECT_NAME": "STARLINK-11582 [DTC]",
    "OBJECT_ID": "25031E",
    "EPOCH": "2025-11-11T04:20:11.717088",
    "MEAN_MOTION": 15.70866921,
    "ECCENTRICITY": 0.0003482,
    "INCLINATION": 42.9966,
    "RA_OF_ASC_NODE": 355.827,
    "ARG_OF_PERICENTER": 300.0613,
    "MEAN_ANOMALY": 59.9909,
    "EPHEMERIS_TYPE": 0,
    "CLASSIFICATION_TYPE": "U",
    "NORAD_CAT_ID": 62985,
    "ELEMENT_SET_NO": 999,
    "REV_AT_EPOCH": 4410,
    "BSTAR": 0.0020184,
    "MEAN_MOTION_DOT": 0.0026738,
    "MEAN_MOTION_DDOT": 0.0,
    "TLE_LINE1": "1 62985U 25031E   25315.18069117  .00267380  00000+0  20184-2 0  9992",
    "TLE_LINE2": "2 62985  42.9966 355.8270 0003482 300.0613  59.9909 15.70866921 44103",
    "COMMENT": "Grouped by shell and plane from TLE"
  },
  {
    "OBJECT_NAME": "STARLINK-11571 [DTC]",
    "OBJECT_ID": "25031F",
    "EPOCH": "2025-11-11T03:34:19.114176",
    "MEAN_MOTION": 15.70941848,
    "ECCENTRICITY": 0.0001603,
    "INCLINATION": 42.9994,
    "RA_OF_ASC_NODE": 355.5697,
    "ARG_OF_PERICENTER": 248.3746,
    "MEAN_ANOMALY": 111.6951,
    "EPHEMERIS_TYPE": 0,
    "CLASSIFICATION_TYPE": "U",
    "NORAD_CAT_ID": 62986,
    "ELEMENT_SET_NO": 999,
    "REV_AT_EPOCH": 4410,
    "BSTAR": 0.0028999000000000004,
    "MEAN_MOTION_DOT": 0.00391381,
    "MEAN_MOTION_DDOT": 0.0,
    "TLE_LINE1": "1 62986U 25031F   25315.14883234  .00391381  00000+0  28999-2 0  9994",
    "TLE_LINE2": "2 62986  42.9994 355.5697 0001603 248.3746 111.6951 15.70941848 44104",
    "COMMENT": "Grouped by shell and plane from TLE"
  },
  {
    "OBJECT_NAME": "STARLINK-11539 [DTC]",
    "OBJECT_ID": "25031G",
    "EPOCH": "2025-11-11T04:12:32.933952",
    "MEAN_MOTION": 15.70899265,
    "ECCENTRICITY": 0.0001267,
    "INCLINATION": 42.9993,
    "RA_OF_ASC_NODE": 355.7819,
    "ARG_OF_PERICENTER": 263.1762,
    "MEAN_ANOMALY": 96.8961,
    "EPHEMERIS_TYPE": 0,
    "CLASSIFICATION_TYPE": "U",
    "NORAD_CAT_ID": 62987,
    "ELEMENT_SET_NO": 999,
    "REV_AT_EPOCH": 4410,
    "BSTAR": 0.0020676,
    "MEAN_MOTION_DOT": 0.00274484,
    "MEAN_MOTION_DDOT": 0.0,
    "TLE_LINE1": "1 62987U 25031G   25315.17538118  .00274484  00000+0  20676-2 0  9994",
    "TLE_LINE2": "2 62987  42.9993 355.7819 0001267 263.1762  96.8961 15.70899265 44101",
    "COMMENT": "Grouped by shell and plane from TLE"
  },
  {
    "OBJECT_NAME": "STARLINK-11542 [DTC]",
    "OBJECT_ID": "25031H",
    "EPOCH": "2025-11-11T08:00:03.000384",
    "MEAN_MOTION": 15.70831867,
    "ECCENTRICITY": 0.0001369,
    "INCLINATION": 42.9997,
    "RA_OF_ASC_NODE": 354.6096,
    "ARG_OF_PERICENTER": 277.0182,
    "MEAN_ANOMALY": 347.7447,
    "EPHEMERIS_TYPE": 0,
    "CLASSIFICATION_TYPE": "U",
    "NORAD_CAT_ID": 62988,
    "ELEMENT_SET_NO": 999,
    "REV_AT_EPOCH": 579,
    "BSTAR": 0.0,
    "MEAN_MOTION_DOT": -0.0001459,
    "MEAN_MOTION_DDOT": 0.0,
    "TLE_LINE1": "1 62988U 25031H   25315.33336806 -.00014590  00000+0 -11045-3 0  9996",
    "TLE_LINE2": "2 62988  42.9997 354.6096 0001369 277.0182 347.7447 15.70831867  5797",
    "COMMENT": "Grouped by shell and plane from TLE"
  },
  {
    "OBJECT_NAME": "STARLINK-11573 [DTC]",
    "OBJECT_ID": "25031J",
    "EPOCH": "2025-11-11T03:03:55.445184",
    "MEAN_MOTION": 15.71099027,
    "ECCENTRICITY": 0.0001234,
    "INCLINATION": 42.9992,
    "RA_OF_ASC_NODE": 356.2931,
    "ARG_OF_PERICENTER": 201.3369,
    "MEAN_ANOMALY": 158.7448,
    "EPHEMERIS_TYPE": 0,
    "CLASSIFICATION_TYPE": "U",
    "NORAD_CAT_ID": 62989,
    "ELEMENT_SET_NO": 999,
    "REV_AT_EPOCH": 4406,
    "BSTAR": 0.0031746,
    "MEAN_MOTION_DOT": 0.00433575,
    "MEAN_MOTION_DDOT": 0.0,
    "TLE_LINE1": "1 62989U 25031J   25315.12772506  .00433575  00000+0  31746-2 0  9990",
    "TLE_LINE2": "2 62989  42.9992 356.2931 0001234 201.3369 158.7448 15.71099027 44066",
    "COMMENT": "Grouped by shell and plane from TLE"
  },
  {
    "OBJECT_NAME": "STARLINK-11572 [DTC]",
    "OBJECT_ID": "25031K",
    "EPOCH": "2025-11-11T03:58:34.158432",
    "MEAN_MOTION": 15.70911649,
    "ECCENTRICITY": 0.0001713,
    "INCLINATION": 43.0009,
    "RA_OF_ASC_NODE": 355.7035,
    "ARG_OF_PERICENTER": 265.2961,
    "MEAN_ANOMALY": 94.7711,
    "EPHEMERIS_TYPE": 0,
    "CLASSIFICATION_TYPE": "U",
    "NORAD_CAT_ID": 62990,
    "ELEMENT_SET_NO": 999,
    "REV_AT_EPOCH": 4410,
    "BSTAR": 0.0022724,
    "MEAN_MOTION_DOT": 0.00302919,
    "MEAN_MOTION_DDOT": 0.0,
    "TLE_LINE1": "1 62990U 25031K   25315.16567313  .00302919  00000+0  22724-2 0  9997",
    "TLE_LINE2": "2 62990  43.0009 355.7035 0001713 265.2961  94.7711 15.70911649 44106",
    "COMMENT": "Grouped by shell and plane from TLE"
  }
]